# From MPC106342
C/1995 O1 (Hale-Bopp),e,89.0409,283.2525,130.5146,178.6956,0.0004126,0.99495099,0.0000,03/29.7423/1997,2000,g -2.0,4.0
# From NK 1615
P/1996 R2 (Lagerkvist),e,2.6004,40.0256,333.3172,3.775014,0.1343774,0.31414511,104.9826,04/03.0/2021,2000,g 11.5,4.0
# From MPC 30063
P/1997 B1 (Kobayashi),e,12.3395,328.8822,183.3455,8.572055,0.0392714,0.76017706,345.8711,04/03.0/2021,2000,g 15.0,2.0
# From MPC 75703
P/1998 VS24 (LINEAR),e,5.0258,159.0335,244.6417,4.528775,0.1022664,0.24216079,119.7474,04/03.0/2021,2000,g 13.0,2.0
# From NK 731
P/1999 RO28 (LONEOS),e,7.5672,137.8850,231.2649,3.426728,0.1553762,0.67216266,100.4992,04/03.0/2021,2000,g 20.0,2.0
# From MPC 75704
P/1999 XN120 (Catalina),e,5.0297,285.2962,161.8591,4.179019,0.1153699,0.21025893,160.6984,04/03.0/2021,2000,g 13.5,2.0
# From NK 744
P/2000 R2 (LINEAR),e,11.6855,160.2898,176.5306,3.466445,0.1527136,0.53159910,100.1073,04/03.0/2021,2000,g 18.0,4.0
# From MPC 43019
P/2001 H5 (NEAT),e,8.3669,328.6834,224.8584,6.097968,0.0654525,0.59850835,130.4669,04/03.0/2021,2000,g 12.0,4.0
# From MPC 75704
P/2001 Q6 (NEAT),e,56.9064,22.1466,42.9354,7.952466,0.0439492,0.82290509,313.3299,04/03.0/2021,2000,g 13.5,4.0
# From MPC 47727
P/2002 EJ57 (LINEAR),e,4.9762,330.3263,167.3650,6.471664,0.0598660,0.59254481,61.0518,04/03.0/2021,2000,g 12.5,4.0
# From MPC109588
P/2002 T6 (NEAT-LINEAR),e,10.8350,206.3411,219.6442,7.678188,0.0463251,0.56042548,304.0942,04/03.0/2021,2000,g 10.5,4.0
# From MPC 75007
C/2002 VQ94 (LINEAR),e,70.5922,35.0378,100.1422,185.3910,0.0003905,0.96314829,2.1650,04/03.0/2021,2000,g  9.5,2.0
# From MPC 50354
P/2003 F2 (NEAT),e,11.6050,359.0503,192.0205,6.495714,0.0595338,0.54232851,30.2110,04/03.0/2021,2000,g 16.5,2.0
# From MPC 50139
P/2003 QX29 (NEAT),e,11.3899,264.5768,37.4577,8.029518,0.0433181,0.47300170,291.3337,04/03.0/2021,2000,g  8.5,4.0
# From MPC105235
P/2003 T12 (SOHO),e,11.0184,174.5747,219.7615,2.586048,0.2370004,0.76970429,78.4760,04/03.0/2021,2000,g 17.0,4.0
# From MPC 82312
P/2004 A1 (LONEOS),e,10.5516,124.8468,21.3478,7.958893,0.0438960,0.30931716,266.9383,04/03.0/2021,2000,g  6.5,4.0
# From MPC 54558
P/2004 DO29 (Spacewatch-LINEAR),e,14.5321,147.3746,40.6934,7.284376,0.0501321,0.44120567,301.9146,04/03.0/2021,2000,g 13.5,2.0
# From MPC 54823
P/2004 FY140 (LINEAR),e,2.1348,326.7612,242.4267,4.902680,0.0907933,0.16838537,188.8599,04/03.0/2021,2000,g 12.5,2.0
# From MPC 53304
P/2004 R3 (LINEAR-NEAT),e,12.8168,305.4786,38.2096,4.797294,0.0938014,0.26084374,343.6118,04/03.0/2021,2000,g 14.5,4.0
# From MPC 55521
P/2004 V3 (Siding Spring),e,50.4380,356.1208,322.3321,7.142017,0.0516384,0.44634346,310.2681,04/03.0/2021,2000,g 11.5,4.0
# From MPC 75705
P/2004 V5 (LINEAR-Hill),e,19.3431,47.7791,87.7337,7.978243,0.0437364,0.44355585,258.1407,04/03.0/2021,2000,g  8.0,4.0
# From MPC 54164
P/2005 E1 (Tubbiolo),e,4.2637,335.5687,194.0835,7.039301,0.0527728,0.37514008,311.9901,04/03.0/2021,2000,g 10.0,4.0
# From MPC 54823
P/2005 GF8 (LONEOS),e,1.1921,314.8134,284.8730,5.844938,0.0697484,0.51770737,38.5199,04/03.0/2021,2000,g 11.5,4.0
# From MPC 79019
P/2005 J1 (McNaught),e,31.7635,268.8084,338.9618,3.570211,0.1461044,0.56971821,131.9919,04/03.0/2021,2000,g 16.5,4.0
# From MPC 74246
P/2005 L1 (McNaught),e,7.7385,138.2481,149.7183,3.975364,0.1243480,0.20944916,333.4261,04/03.0/2021,2000,g  9.5,4.0
# From MPC 75706
P/2005 S2 (Skiff),e,3.1357,161.2051,229.1542,8.015819,0.0434292,0.19722568,236.4107,04/03.0/2021,2000,g  7.5,4.0
# From MPC 75706
P/2005 SB216 (LONEOS),e,24.0806,1.2080,83.3729,7.129961,0.0517694,0.46355904,269.3003,04/03.0/2021,2000,g 12.0,2.0
# From MPC 55717
P/2005 T2 (Christensen),e,8.2924,260.1588,58.8255,3.846307,0.1306586,0.41638989,46.9852,04/03.0/2021,2000,g 14.5,4.0
# From MPC 73461
P/2005 T3 (Read),e,6.2240,27.7248,6.8854,7.580783,0.0472208,0.17424463,267.1940,04/03.0/2021,2000,g  9.0,4.0
# From MPC 73461
P/2005 T4 (SWAN),e,160.2014,25.7251,41.6294,9.361215,0.0344117,0.92981368,194.9257,04/03.0/2021,2000,g 15.0,4.0
# From MPC 75706
P/2005 T5 (Broughton),e,21.3578,57.0037,304.5503,7.290281,0.0500712,0.55220806,283.2208,04/03.0/2021,2000,g 11.0,4.0
# From MPC 56954
P/2005 W3 (Kowalski),e,16.4198,210.0857,200.7157,6.329479,0.0618945,0.54338868,349.4255,04/03.0/2021,2000,g 12.0,4.0
# From MPC 75706
P/2005 Y2 (McNaught),e,19.0719,94.4647,193.9538,6.387002,0.0610602,0.47079753,10.0665,04/03.0/2021,2000,g  9.0,4.0
# From MPC 56954
P/2006 F4 (Spacewatch),e,12.4153,183.8423,31.0454,3.523911,0.1489933,0.33978572,90.8124,04/03.0/2021,2000,g 15.0,4.0
# From MPC 75707
P/2006 HR30 (Siding Spring),e,31.8297,309.9029,117.2887,7.811251,0.0451464,0.84219669,235.8892,04/03.0/2021,2000,g 11.0,4.0
# From MPC 75707
P/2006 S4 (Christensen),e,39.5324,36.0863,305.1456,6.314467,0.0621154,0.50824109,342.1965,04/03.0/2021,2000,g 11.0,4.0
# From MPC 75707
P/2007 A2 (Christensen),e,26.4877,300.9070,186.7407,6.326931,0.0619319,0.55768406,322.5132,04/03.0/2021,2000,g 13.5,4.0
# From MPC 75707
P/2007 C2 (Catalina),e,8.6441,275.5573,179.9887,6.992561,0.0533028,0.47058845,263.0526,04/03.0/2021,2000,g 10.0,4.0
# From MPC 84315
C/2007 D1 (LINEAR),e,41.5017,171.1987,340.0486,1456,0.0000177,0.99394018,0.0000,06/08.8631/2007,2000,g  3.5,4.0
# From MPC 82314
P/2007 K2 (Gibbs),e,7.6336,188.6440,347.4501,7.264561,0.0503373,0.68317132,254.3671,04/03.0/2021,2000,g 14.0,4.0
# From MPC 60925
P/2007 Q2 (Gilmore),e,10.2027,172.1601,162.7753,5.652798,0.0733346,0.67013303,9.3158,04/03.0/2021,2000,g 16.0,4.0
# From MPC 75708
P/2007 R4 (Garradd),e,20.2180,87.2188,282.6098,5.932963,0.0682019,0.67016347,342.9653,04/03.0/2021,2000,g 14.5,4.0
# From MPC 73462
P/2007 S1 (Zhao),e,5.9636,141.3737,245.6598,3.814859,0.1322776,0.33958086,286.8054,04/03.0/2021,2000,g 13.0,4.0
# From MPC 61994
P/2007 T2 (Kowalski),e,9.7475,3.3745,359.6375,3.047001,0.1853084,0.78534801,182.3684,04/03.0/2021,2000,g 18.5,4.0
# From MPC 75708
P/2008 CL94 (Lemmon),e,8.3467,33.3244,80.4548,6.162077,0.0644338,0.12039856,348.9864,04/03.0/2021,2000,g  8.0,4.0
# From MPC 75709
P/2008 L2 (Hill),e,25.8604,218.0074,141.2196,6.028529,0.0665866,0.61314710,308.8515,04/03.0/2021,2000,g 12.5,4.0
# From MPC 64114
P/2008 O3 (Boattini),e,32.2644,47.5904,341.0953,8.221882,0.0418068,0.69533898,196.3770,04/03.0/2021,2000,g 13.0,4.0
# From MPC 75709
P/2008 QP20 (LINEAR-Hill),e,7.5227,322.0725,75.5541,3.553935,0.1471092,0.49196229,319.6731,04/03.0/2021,2000,g 15.5,4.0
# From MPC 66204
P/2008 WZ96 (LINEAR),e,7.1113,56.4527,341.9130,3.488324,0.1512791,0.47001117,337.9508,04/03.0/2021,2000,g 13.5,4.0
# From MPC 75710
P/2008 Y3 (McNaught),e,38.7654,262.7982,238.2280,8.046603,0.0431803,0.44546595,193.5959,04/03.0/2021,2000,g  8.5,4.0
# From MPC 75710
P/2009 B1 (Boattini),e,22.2198,297.0906,128.8826,6.736639,0.0563688,0.63477833,251.9551,04/03.0/2021,2000,g 13.0,4.0
# From MPC 66466
C/2009 G1 (STEREO),e,108.7394,120.4372,175.4117,433.9372,0.0001090,0.99738172,0.0000,04/15.6555/2009,2000,g  9.0,4.0
# From MPC 75710
P/2009 O3 (Hill),e,16.2710,183.7065,154.4094,7.769662,0.0455094,0.68769937,197.2446,04/03.0/2021,2000,g 12.5,4.0
# From MPEC 2021-F20
P/2009 Q1 (Hill),e,14.5029,173.9606,157.1455,5.519851,0.0759999,0.49481757,328.4687,04/03.0/2021,2000,g 11.5,4.0
# From MPC 68902
P/2009 Q5 (McNaught),e,40.9812,160.2710,209.0242,7.436677,0.0485999,0.60893720,205.5210,04/03.0/2021,2000,g 10.0,4.0
# From MPC112389
P/2009 T2 (La Sagra),e,27.5580,215.8108,216.3964,7.723619,0.0459169,0.76526790,188.9401,04/03.0/2021,2000,g 14.0,4.0
# From MPC 75711
P/2009 U4 (McNaught),e,10.0806,55.3503,259.8367,5.082883,0.0860080,0.67605993,5.2388,04/03.0/2021,2000,g 14.0,4.0
# From MPC105235
P/2009 WX51 (Catalina),e,9.5952,31.6816,118.0785,3.080620,0.1822833,0.74028977,25.0890,04/03.0/2021,2000,g 19.0,2.0
# From MPC 74247
P/2009 Y2 (Kowalski),e,29.9320,262.0249,172.1540,6.549677,0.0587996,0.63597101,238.1907,04/03.0/2021,2000,g 13.0,4.0
# From MPC 75711
P/2010 A3 (Hill),e,14.8473,63.9552,42.0514,6.077119,0.0657896,0.73341362,265.2539,04/03.0/2021,2000,g 14.0,4.0
# From MPC 75008
P/2010 C1 (Scotti),e,9.1280,141.8859,3.7106,7.103378,0.0520603,0.25871230,216.4822,04/03.0/2021,2000,g  9.5,4.0
# From MPC 75008
P/2010 D2 (WISE),e,57.0849,319.8917,120.0588,6.716510,0.0566224,0.45094469,230.2159,04/03.0/2021,2000,g 16.0,4.0
# From MPC 75009
P/2010 E2 (Jarnac),e,15.3990,177.8240,8.3651,8.638755,0.0388175,0.71999953,156.0093,04/03.0/2021,2000,g 14.0,4.0
# From MPC 72851
P/2010 H2 (Vales),e,14.2737,64.2006,128.1442,3.833875,0.1312947,0.19578147,170.9730,04/03.0/2021,2000,g  6.0,4.0
# From MPC 70361
P/2010 H3 (SOHO),e,23.0867,77.1007,26.1388,3.037853,0.1861461,0.98538414,0.0000,02/07.9649/2021,2000,g 20.0,2.0
# From MPC 73463
P/2010 H4 (Scotti),e,2.3186,44.7427,179.5444,6.591150,0.0582455,0.26726701,229.5540,04/03.0/2021,2000,g 10.5,4.0
# From MPC 74637
P/2010 H5 (Scotti),e,14.0644,24.8065,175.2210,7.160987,0.0514333,0.15334428,206.4759,04/03.0/2021,2000,g 13.0,2.0
# From MPC 98558
P/2010 J3 (McMillan),e,13.2873,106.4148,157.5947,8.972049,0.0366747,0.72701741,141.9004,04/03.0/2021,2000,g 11.0,4.0
# From MPC 84315
P/2010 JC81 (WISE),e,38.7409,30.8466,12.4338,8.110066,0.0426744,0.77691492,155.1784,04/03.0/2021,2000,g  9.0,4.0
# From MPC 74248
P/2010 T2 (PANSTARRS),e,7.9026,58.9357,353.4802,5.524187,0.0759104,0.32149653,277.5758,04/03.0/2021,2000,g 11.5,4.0
# From MPC 98558
P/2010 TO20 (LINEAR-Grauer),e,2.4790,43.2948,266.7901,5.830184,0.0700133,0.05486723,318.2921,04/03.0/2021,2000,g  9.0,4.0
# From MPC 82316
P/2010 U1 (Boattini),e,8.2147,280.7113,85.9398,6.510413,0.0593323,0.24829296,242.4653,04/03.0/2021,2000,g  9.5,4.0
# From MPEC 2021-FB5
C/2010 U3 (Boattini),e,55.5259,43.0252,88.0648,2310,0.0000089,0.99634372,0.0000,02/25.6923/2019,2000,g  1.0,4.0
# From MPC 79021
P/2010 UH55 (Spacewatch),e,8.0428,232.9613,225.1787,6.652154,0.0574461,0.56339779,209.3489,04/03.0/2021,2000,g 11.0,4.0
# From MPC 75009
P/2010 WK (LINEAR),e,11.4009,11.3207,40.9765,5.761020,0.0712779,0.68989654,274.0253,04/03.0/2021,2000,g 14.5,2.0
# From MPC 82317
